$$SOE
2460735.500000000, A.D. 2025-Mar-01 00:00:00.0000, -4.256206626934501E+08, -2.730210964120489E+08, -3.783449479810981E+07,
2460742.500000000, A.D. 2025-Mar-08 00:00:00.0000, -4.205721132815890E+08, -2.809665779931738E+08, -3.927454290953201E+07,
2460749.500000000, A.D. 2025-Mar-15 00:00:00.0000, -4.153671772609708E+08, -2.888076541283847E+08, -4.069998826311678E+07,
2460756.500000000, A.D. 2025-Mar-22 00:00:00.0000, -4.100079942802380E+08, -2.965415493979251E+08, -4.211032120530002E+07,
2460763.500000000, A.D. 2025-Mar-29 00:00:00.0000, -4.044967485752689E+08, -3.041655288324154E+08, -4.350503795683497E+07,
2460770.500000000, A.D. 2025-Apr-05 00:00:00.0000, -3.988356674670178E+08, -3.116768991826636E+08, -4.488364082758495E+07,
2460777.500000000, A.D. 2025-Apr-12 00:00:00.0000, -3.930270201041695E+08, -3.190730091958780E+08, -4.624563832810326E+07,
2460784.500000000, A.D. 2025-Apr-19 00:00:00.0000, -3.870731166363502E+08, -3.263512497785638E+08, -4.759054523290627E+07,
2460791.500000000, A.D. 2025-Apr-26 00:00:00.0000, -3.809763075444680E+08, -3.335090542487723E+08, -4.891788263701209E+07,
2460798.500000000, A.D. 2025-May-03 00:00:00.0000, -3.747389830129797E+08, -3.405438986589702E+08, -5.022717801475844E+07,
2460805.500000000, A.D. 2025-May-10 00:00:00.0000, -3.683635723145471E+08, -3.474533021819301E+08, -5.151796528308660E+07,
2460812.500000000, A.D. 2025-May-17 00:00:00.0000, -3.618525431700976E+08, -3.542348276020293E+08, -5.278978487639239E+07,
2460819.500000000, A.D. 2025-May-24 00:00:00.0000, -3.552084009106646E+08, -3.608860819676682E+08, -5.404218385375322E+07,
2460826.500000000, A.D. 2025-May-31 00:00:00.0000, -3.484336870237331E+08, -3.674047170946514E+08, -5.527471605177206E+07,
2460833.500000000, A.D. 2025-Jun-07 00:00:00.0000, -3.415309774852638E+08, -3.737884287159902E+08, -5.648694214798442E+07,
2460840.500000000, A.D. 2025-Jun-14 00:00:00.0000, -3.345028832415212E+08, -3.800349549449452E+08, -5.767842947251166E+07,
2460847.500000000, A.D. 2025-Jun-21 00:00:00.0000, -3.273520516234536E+08, -3.861420773232766E+08, -5.884875194708471E+07,
2460854.500000000, A.D. 2025-Jun-28 00:00:00.0000, -3.200811655657386E+08, -3.921076226909814E+08, -5.999749029441743E+07,
2460861.500000000, A.D. 2025-Jul-05 00:00:00.0000, -3.126929421474432E+08, -3.979294637211148E+08, -6.112423220263287E+07,
2460868.500000000, A.D. 2025-Jul-12 00:00:00.0000, -3.051901316447674E+08, -4.036055189245388E+08, -6.222857240118188E+07,
2460875.500000000, A.D. 2025-Jul-19 00:00:00.0000, -2.975755169053400E+08, -4.091337526993734E+08, -6.331011271249422E+07,
2460882.500000000, A.D. 2025-Jul-26 00:00:00.0000, -2.898519128331636E+08, -4.145121754818861E+08, -6.436846210318974E+07,
2460889.500000000, A.D. 2025-Aug-02 00:00:00.0000, -2.820221659181346E+08, -4.197388439776436E+08, -6.540323673909077E+07,
2460896.500000000, A.D. 2025-Aug-09 00:00:00.0000, -2.740891537863129E+08, -4.248118614879750E+08, -6.641406004737732E+07,
2460903.500000000, A.D. 2025-Aug-16 00:00:00.0000, -2.660557846936667E+08, -4.297293783951807E+08, -6.740056279803187E+07,
2460910.500000000, A.D. 2025-Aug-23 00:00:00.0000, -2.579249966702847E+08, -4.344895927900627E+08, -6.836238322991240E+07,
2460917.500000000, A.D. 2025-Aug-30 00:00:00.0000, -2.496997559856910E+08, -4.390907505276966E+08, -6.929916719306180E+07,
2460924.500000000, A.D. 2025-Sep-06 00:00:00.0000, -2.413830563527381E+08, -4.435311437108433E+08, -7.021056809512156E+07,
2460931.500000000, A.D. 2025-Sep-13 00:00:00.0000, -2.329779205396867E+08, -4.478091100835602E+08, -7.109624670120236E+07,
2460938.500000000, A.D. 2025-Sep-20 00:00:00.0000, -2.244874011163076E+08, -4.519230349800553E+08, -7.195587122174633E+07,
2460945.500000000, A.D. 2025-Sep-27 00:00:00.0000, -2.159145792753068E+08, -4.558713527181329E+08, -7.278911753122509E+07,
2460952.500000000, A.D. 2025-Oct-04 00:00:00.0000, -2.072625637456582E+08, -4.596525468981065E+08, -7.359566928851953E+07,
2460959.500000000, A.D. 2025-Oct-11 00:00:00.0000, -1.985344901709867E+08, -4.632651505497909E+08, -7.437521800160456E+07,
2460966.500000000, A.D. 2025-Oct-18 00:00:00.0000, -1.897335206685200E+08, -4.667077464015403E+08, -7.512746308487597E+07,
2460973.500000000, A.D. 2025-Oct-25 00:00:00.0000, -1.808628434281138E+08, -4.699789672600643E+08, -7.585211192106313E+07,
2460980.500000000, A.D. 2025-Nov-01 00:00:00.0000, -1.719256723110363E+08, -4.730774964855705E+08, -7.654887993029919E+07,
2460987.500000000, A.D. 2025-Nov-08 00:00:00.0000, -1.629252464133509E+08, -4.760020685938478E+08, -7.721749065242517E+07,
2460994.500000000, A.D. 2025-Nov-15 00:00:00.0000, -1.538648294456490E+08, -4.787514700440094E+08, -7.785767586125374E+07,
2461001.500000000, A.D. 2025-Nov-22 00:00:00.0000, -1.447477085261963E+08, -4.813245399918504E+08, -7.846917573010558E+07,
2461008.500000000, A.D. 2025-Nov-29 00:00:00.0000, -1.355771925405593E+08, -4.837201698735955E+08, -7.905173894210148E+07,
2461015.500000000, A.D. 2025-Dec-06 00:00:00.0000, -1.263566123448717E+08, -4.859373019551797E+08, -7.960512254754272E+07,
2461022.500000000, A.D. 2025-Dec-13 00:00:00.0000, -1.170893223783357E+08, -4.879749302162636E+08, -8.012909188358590E+07,
2461029.500000000, A.D. 2025-Dec-20 00:00:00.0000, -1.077787001910497E+08, -4.898321025453237E+08, -8.062342079305226E+07,
2461036.500000000, A.D. 2025-Dec-27 00:00:00.0000, -9.842814496047121E+07, -4.915079216537896E+08, -8.108789183201107E+07,
2461043.500000000, A.D. 2026-Jan-03 00:00:00.0000, -8.904107645475654E+07, -4.930015453233969E+08, -8.152229638230783E+07,
2461050.500000000, A.D. 2026-Jan-10 00:00:00.0000, -7.962093433172119E+07, -4.943121866643891E+08, -8.192643473437274E+07,
2461057.500000000, A.D. 2026-Jan-17 00:00:00.0000, -7.017117753936739E+07, -4.954391144754343E+08, -8.230011616914946E+07,
2461064.500000000, A.D. 2026-Jan-24 00:00:00.0000, -6.069528373889387E+07, -4.963816536823269E+08, -8.264315904463989E+07,
2461071.500000000, A.D. 2026-Jan-31 00:00:00.0000, -5.119674872603193E+07, -4.971391858627721E+08, -8.295539089007238E+07,
2461078.500000000, A.D. 2026-Feb-07 00:00:00.0000, -4.167908578885688E+07, -4.977111499143699E+08, -8.323664851818806E+07,
2461085.500000000, A.D. 2026-Feb-14 00:00:00.0000, -3.214582474885493E+07, -4.980970428805521E+08, -8.348677818011412E+07,
2461092.500000000, A.D. 2026-Feb-21 00:00:00.0000, -2.260051029751245E+07, -4.982964203565980E+08, -8.370563575107396E+07,
2461099.500000000, A.D. 2026-Feb-28 00:00:00.0000, -1.304670071299627E+07, -4.983088953210588E+08, -8.389308675288546E+07,
2461106.500000000, A.D. 2026-Mar-07 00:00:00.0000, -3.487969014791183E+06, -4.981341373408837E+08, -8.404900618338826E+07,
2461113.500000000, A.D. 2026-Mar-14 00:00:00.0000, 6.072096220765970E+06, -4.977718744817533E+08, -8.417327859774065E+07,
2461120.500000000, A.D. 2026-Mar-21 00:00:00.0000, 1.562989216821023E+07, -4.972218950256543E+08, -8.426579836826468E+07,
2461127.500000000, A.D. 2026-Mar-28 00:00:00.0000, 2.518180317525517E+07, -4.964840479671892E+08, -8.432646985441256E+07,
2461134.500000000, A.D. 2026-Apr-04 00:00:00.0000, 3.472420169655613E+07, -4.955582432539266E+08, -8.435520750617951E+07,
2461141.500000000, A.D. 2026-Apr-11 00:00:00.0000, 4.425344901350587E+07, -4.944444521301693E+08, -8.435193595519990E+07,
2461148.500000000, A.D. 2026-Apr-18 00:00:00.0000, 5.376589590013971E+07, -4.931427075901011E+08, -8.431659010833865E+07,
2461155.500000000, A.D. 2026-Apr-25 00:00:00.0000, 6.325788328204811E+07, -4.916531049247338E+08, -8.424911524642158E+07,
2461162.500000000, A.D. 2026-May-02 00:00:00.0000, 7.272574292039344E+07, -4.899758023915044E+08, -8.414946713305938E+07,
2461169.500000000, A.D. 2026-May-09 00:00:00.0000, 8.216579824716663E+07, -4.881110220723410E+08, -8.401761215025556E+07,
2461176.500000000, A.D. 2026-May-16 00:00:00.0000, 9.157436573095980E+07, -4.860590507817919E+08, -8.385352748410937E+07,
2461183.500000000, A.D. 2026-May-23 00:00:00.0000, 1.009477568259731E+08, -4.838202400028095E+08, -8.365720128177774E+07,
2461190.500000000, A.D. 2026-May-30 00:00:00.0000, 1.102822784262630E+08, -4.813950045299937E+08, -8.342863256280875E+07,
2461197.500000000, A.D. 2026-Jun-06 00:00:00.0000, 1.195742315085000E+08, -4.787838230922530E+08, -8.316783112304148E+07,
2461204.500000000, A.D. 2026-Jun-13 00:00:00.0000, 1.288199116303991E+08, -4.759872407546861E+08, -8.287481775104889E+07,
2461211.500000000, A.D. 2026-Jun-20 00:00:00.0000, 1.380156107848721E+08, -4.730058701733072E+08, -8.254962447229427E+07,
2461218.500000000, A.D. 2026-Jun-27 00:00:00.0000, 1.471576189120936E+08, -4.698403920421093E+08, -8.219229469319800E+07,
2461225.500000000, A.D. 2026-Jul-04 00:00:00.0000, 1.562422250697722E+08, -4.664915555064513E+08, -8.180288330850819E+07,
2461232.500000000, A.D. 2026-Jul-11 00:00:00.0000, 1.652657185159872E+08, -4.629601786734896E+08, -8.138145680605033E+07,
2461239.500000000, A.D. 2026-Jul-18 00:00:00.0000, 1.742243897977940E+08, -4.592471491925066E+08, -8.092809337520856E+07,
2461246.500000000, A.D. 2026-Jul-25 00:00:00.0000, 1.831145318707002E+08, -4.553534249008027E+08, -8.044288302107358E+07,
2461253.500000000, A.D. 2026-Aug-01 00:00:00.0000, 1.919324412981200E+08, -4.512800345817068E+08, -7.992592769258040E+07,
2461260.500000000, A.D. 2026-Aug-08 00:00:00.0000, 2.006744197469357E+08, -4.470280788695387E+08, -7.937734144738322E+07,
2461267.500000000, A.D. 2026-Aug-15 00:00:00.0000, 2.093367761951524E+08, -4.425987308507847E+08, -7.879725065490356E+07,
2461274.500000000, A.D. 2026-Aug-22 00:00:00.0000, 2.179158290906097E+08, -4.379932351399265E+08, -7.818579406794217E+07,
2461281.500000000, A.D. 2026-Aug-29 00:00:00.0000, 2.264079061706908E+08, -4.332129068010695E+08, -7.754312266467470E+07,
2461288.500000000, A.D. 2026-Sep-05 00:00:00.0000, 2.348093440759735E+08, -4.282591329801698E+08, -7.686939969041562E+07,
2461295.500000000, A.D. 2026-Sep-12 00:00:00.0000, 2.431164902135512E+08, -4.231333747491475E+08, -7.616480091990647E+07,
$$EOE